[{"OBJECT_NAME":"ONEWEB-0058","OBJECT_ID":"2020-008AG","EPOCH":"2026-01-18T13:11:57.655968","MEAN_MOTION":13.10376667,"ECCENTRICITY":0.00015103,"INCLINATION":87.8773,"RA_OF_ASC_NODE":66.1095,"ARG_OF_PERICENTER":99.6855,"MEAN_ANOMALY":260.4443,"EPHEMERIS_TYPE":0,"CLASSIFICATION_TYPE":"U","NORAD_CAT_ID":45161,"ELEMENT_SET_NO":999,"REV_AT_EPOCH":28882,"BSTAR":-0.00090923941,"MEAN_MOTION_DOT":-3.05e-6,"MEAN_MOTION_DDOT":0},{"OBJECT_NAME":"ONEWEB-0059","OBJECT_ID":"2020-008AH","EPOCH":"2026-01-18T13:06:57.990528","MEAN_MOTION":13.10375221,"ECCENTRICITY":0.00017009,"INCLINATION":87.877,"RA_OF_ASC_NODE":66.1108,"ARG_OF_PERICENTER":95.6028,"MEAN_ANOMALY":264.5294,"EPHEMERIS_TYPE":0,"CLASSIFICATION_TYPE":"U","NORAD_CAT_ID":45162,"ELEMENT_SET_NO":999,"REV_AT_EPOCH":28872,"BSTAR":-0.001361067,"MEAN_MOTION_DOT":-4.62e-6,"MEAN_MOTION_DDOT":0},{"OBJECT_NAME":"ONEWEB-0062","OBJECT_ID":"2020-008AJ","EPOCH":"2026-01-18T13:44:03.216480","MEAN_MOTION":13.10374422,"ECCENTRICITY":0.00013822,"INCLINATION":87.8778,"RA_OF_ASC_NODE":66.0835,"ARG_OF_PERICENTER":104.2552,"MEAN_ANOMALY":255.8729,"EPHEMERIS_TYPE":0,"CLASSIFICATION_TYPE":"U","NORAD_CAT_ID":45163,"ELEMENT_SET_NO":999,"REV_AT_EPOCH":28859,"BSTAR":0.0018304322,"MEAN_MOTION_DOT":6.52e-6,"MEAN_MOTION_DDOT":0},{"OBJECT_NAME":"ONEWEB-0065","OBJECT_ID":"2020-008AK","EPOCH":"2026-01-18T12:38:05.680032","MEAN_MOTION":13.10369733,"ECCENTRICITY":0.00021807,"INCLINATION":87.8764,"RA_OF_ASC_NODE":66.106,"ARG_OF_PERICENTER":100.361,"MEAN_ANOMALY":259.7764,"EPHEMERIS_TYPE":0,"CLASSIFICATION_TYPE":"U","NORAD_CAT_ID":45164,"ELEMENT_SET_NO":999,"REV_AT_EPOCH":28828,"BSTAR":-0.0010806959,"MEAN_MOTION_DOT":-3.65e-6,"MEAN_MOTION_DDOT":0},{"OBJECT_NAME":"ONEWEB-0066","OBJECT_ID":"2020-020A","EPOCH":"2026-01-18T12:41:23.300160","MEAN_MOTION":13.11420092,"ECCENTRICITY":0.00017278,"INCLINATION":87.8826,"RA_OF_ASC_NODE":50.8552,"ARG_OF_PERICENTER":89.7713,"MEAN_ANOMALY":270.3613,"EPHEMERIS_TYPE":0,"CLASSIFICATION_TYPE":"U","NORAD_CAT_ID":45424,"ELEMENT_SET_NO":999,"REV_AT_EPOCH":28306,"BSTAR":0.0014320551,"MEAN_MOTION_DOT":5.2e-6,"MEAN_MOTION_DDOT":0},{"OBJECT_NAME":"ONEWEB-0067","OBJECT_ID":"2020-020B","EPOCH":"2026-01-18T15:25:08.976864","MEAN_MOTION":13.11415964,"ECCENTRICITY":0.0001969,"INCLINATION":87.8834,"RA_OF_ASC_NODE":50.7377,"ARG_OF_PERICENTER":91.9619,"MEAN_ANOMALY":268.1735,"EPHEMERIS_TYPE":0,"CLASSIFICATION_TYPE":"U","NORAD_CAT_ID":45425,"ELEMENT_SET_NO":999,"REV_AT_EPOCH":28313,"BSTAR":-0.0013665594,"MEAN_MOTION_DOT":-4.72e-6,"MEAN_MOTION_DDOT":0},{"OBJECT_NAME":"ONEWEB-0080","OBJECT_ID":"2020-020C","EPOCH":"2026-01-18T13:48:30.921696","MEAN_MOTION":13.11417234,"ECCENTRICITY":0.00014796,"INCLINATION":87.8824,"RA_OF_ASC_NODE":50.8456,"ARG_OF_PERICENTER":91.113,"MEAN_ANOMALY":269.0167,"EPHEMERIS_TYPE":0,"CLASSIFICATION_TYPE":"U","NORAD_CAT_ID":45426,"ELEMENT_SET_NO":999,"REV_AT_EPOCH":28309,"BSTAR":-0.0013780739,"MEAN_MOTION_DOT":-4.76e-6,"MEAN_MOTION_DDOT":0},{"OBJECT_NAME":"ONEWEB-0090","OBJECT_ID":"2020-020D","EPOCH":"2026-01-18T14:16:48.016416","MEAN_MOTION":13.11418438,"ECCENTRICITY":0.0001766,"INCLINATION":87.8823,"RA_OF_ASC_NODE":50.8433,"ARG_OF_PERICENTER":95.7138,"MEAN_ANOMALY":264.4191,"EPHEMERIS_TYPE":0,"CLASSIFICATION_TYPE":"U","NORAD_CAT_ID":45427,"ELEMENT_SET_NO":999,"REV_AT_EPOCH":28306,"BSTAR":0.00047621919,"MEAN_MOTION_DOT":1.81e-6,"MEAN_MOTION_DDOT":0},{"OBJECT_NAME":"ONEWEB-0061","OBJECT_ID":"2020-020E","EPOCH":"2026-01-18T13:12:54.382752","MEAN_MOTION":13.11415806,"ECCENTRICITY":0.00017781,"INCLINATION":87.8826,"RA_OF_ASC_NODE":50.8352,"ARG_OF_PERICENTER":94.2343,"MEAN_ANOMALY":265.8989,"EPHEMERIS_TYPE":0,"CLASSIFICATION_TYPE":"U","NORAD_CAT_ID":45428,"ELEMENT_SET_NO":999,"REV_AT_EPOCH":28301,"BSTAR":0.00045212714,"MEAN_MOTION_DOT":1.73e-6,"MEAN_MOTION_DDOT":0},{"OBJECT_NAME":"ONEWEB-0081","OBJECT_ID":"2020-020F","EPOCH":"2026-01-18T12:46:15.818592","MEAN_MOTION":13.11416154,"ECCENTRICITY":0.0001933,"INCLINATION":87.8828,"RA_OF_ASC_NODE":50.8545,"ARG_OF_PERICENTER":88.9497,"MEAN_ANOMALY":271.1852,"EPHEMERIS_TYPE":0,"CLASSIFICATION_TYPE":"U","NORAD_CAT_ID":45429,"ELEMENT_SET_NO":999,"REV_AT_EPOCH":28312,"BSTAR":0.001670259,"MEAN_MOTION_DOT":6.05e-6,"MEAN_MOTION_DDOT":0},{"OBJECT_NAME":"ONEWEB-0069","OBJECT_ID":"2020-020G","EPOCH":"2026-01-18T14:20:14.389728","MEAN_MOTION":13.11419682,"ECCENTRICITY":0.00018296,"INCLINATION":87.8827,"RA_OF_ASC_NODE":50.8372,"ARG_OF_PERICENTER":92.8981,"MEAN_ANOMALY":267.2357,"EPHEMERIS_TYPE":0,"CLASSIFICATION_TYPE":"U","NORAD_CAT_ID":45430,"ELEMENT_SET_NO":999,"REV_AT_EPOCH":28306,"BSTAR":0.00074737332,"MEAN_MOTION_DOT":2.78e-6,"MEAN_MOTION_DDOT":0},{"OBJECT_NAME":"ONEWEB-0031","OBJECT_ID":"2020-020H","EPOCH":"2026-01-18T15:29:49.031232","MEAN_MOTION":13.11417124,"ECCENTRICITY":0.00016031,"INCLINATION":87.8817,"RA_OF_ASC_NODE":50.8486,"ARG_OF_PERICENTER":98.6934,"MEAN_ANOMALY":261.4375,"EPHEMERIS_TYPE":0,"CLASSIFICATION_TYPE":"U","NORAD_CAT_ID":45431,"ELEMENT_SET_NO":999,"REV_AT_EPOCH":28305,"BSTAR":-0.0014038312,"MEAN_MOTION_DOT":-4.85e-6,"MEAN_MOTION_DDOT":0},{"OBJECT_NAME":"ONEWEB-0027","OBJECT_ID":"2020-020J","EPOCH":"2026-01-18T13:26:02.685120","MEAN_MOTION":13.17649165,"ECCENTRICITY":0.0001722,"INCLINATION":87.909,"RA_OF_ASC_NODE":35.5778,"ARG_OF_PERICENTER":105.4122,"MEAN_ANOMALY":254.72,"EPHEMERIS_TYPE":0,"CLASSIFICATION_TYPE":"U","NORAD_CAT_ID":45432,"ELEMENT_SET_NO":999,"REV_AT_EPOCH":28665,"BSTAR":0.00014985569,"MEAN_MOTION_DOT":7.1e-7,"MEAN_MOTION_DDOT":0},{"OBJECT_NAME":"ONEWEB-0064","OBJECT_ID":"2020-020K","EPOCH":"2026-01-18T15:27:22.569408","MEAN_MOTION":13.11416795,"ECCENTRICITY":0.00016858,"INCLINATION":87.8818,"RA_OF_ASC_NODE":50.839,"ARG_OF_PERICENTER":99.983,"MEAN_ANOMALY":260.1488,"EPHEMERIS_TYPE":0,"CLASSIFICATION_TYPE":"U","NORAD_CAT_ID":45433,"ELEMENT_SET_NO":999,"REV_AT_EPOCH":28308,"BSTAR":-0.0013220454,"MEAN_MOTION_DOT":-4.56e-6,"MEAN_MOTION_DDOT":0},{"OBJECT_NAME":"ONEWEB-0018","OBJECT_ID":"2020-020L","EPOCH":"2026-01-18T12:34:03.428256","MEAN_MOTION":13.11418234,"ECCENTRICITY":0.00017251,"INCLINATION":87.883,"RA_OF_ASC_NODE":50.8561,"ARG_OF_PERICENTER":90.3419,"MEAN_ANOMALY":269.7907,"EPHEMERIS_TYPE":0,"CLASSIFICATION_TYPE":"U","NORAD_CAT_ID":45434,"ELEMENT_SET_NO":999,"REV_AT_EPOCH":28301,"BSTAR":0.0011565612,"MEAN_MOTION_DOT":4.23e-6,"MEAN_MOTION_DDOT":0},{"OBJECT_NAME":"ONEWEB-0083","OBJECT_ID":"2020-020M","EPOCH":"2026-01-18T14:10:30.078624","MEAN_MOTION":13.11418568,"ECCENTRICITY":0.00016842,"INCLINATION":87.8828,"RA_OF_ASC_NODE":50.831,"ARG_OF_PERICENTER":95.4965,"MEAN_ANOMALY":264.6355,"EPHEMERIS_TYPE":0,"CLASSIFICATION_TYPE":"U","NORAD_CAT_ID":45435,"ELEMENT_SET_NO":999,"REV_AT_EPOCH":28306,"BSTAR":-0.00021979761,"MEAN_MOTION_DOT":-6.5e-7,"MEAN_MOTION_DDOT":0},{"OBJECT_NAME":"ONEWEB-0095","OBJECT_ID":"2020-020N","EPOCH":"2026-01-18T13:57:14.181696","MEAN_MOTION":13.11417552,"ECCENTRICITY":0.00024202,"INCLINATION":87.8823,"RA_OF_ASC_NODE":50.8429,"ARG_OF_PERICENTER":110.3645,"MEAN_ANOMALY":249.7743,"EPHEMERIS_TYPE":0,"CLASSIFICATION_TYPE":"U","NORAD_CAT_ID":45436,"ELEMENT_SET_NO":999,"REV_AT_EPOCH":28306,"BSTAR":-0.0016028936,"MEAN_MOTION_DOT":-5.55e-6,"MEAN_MOTION_DDOT":0}]
