ONEWEB-0058             
1 45161U 20008AG  26018.54997287 -.00000305  00000+0 -90924-3 0  9991
2 45161  87.8773  66.1095 0001510  99.6855 260.4443 13.10376667288826
ONEWEB-0059             
1 45162U 20008AH  26018.54650452 -.00000462  00000+0 -13611-2 0  9993
2 45162  87.8770  66.1108 0001700  95.6028 264.5294 13.10375221288721
ONEWEB-0062             
1 45163U 20008AJ  26018.57225945  .00000652  00000+0  18304-2 0  9995
2 45163  87.8778  66.0835 0001382 104.2552 255.8729 13.10374422288594
ONEWEB-0065             
1 45164U 20008AK  26018.52645463 -.00000365  00000+0 -10807-2 0  9995
2 45164  87.8764  66.1060 0002180 100.3610 259.7764 13.10369733288287
ONEWEB-0066             
1 45424U 20020A   26018.52874190  .00000520  00000+0  14321-2 0  9995
2 45424  87.8826  50.8552 0001727  89.7713 270.3613 13.11420092283061
ONEWEB-0067             
1 45425U 20020B   26018.64246501 -.00000472  00000+0 -13666-2 0  9997
2 45425  87.8834  50.7377 0001969  91.9619 268.1735 13.11415964283133
ONEWEB-0080             
1 45426U 20020C   26018.57535789 -.00000476  00000+0 -13781-2 0  9991
2 45426  87.8824  50.8456 0001479  91.1130 269.0167 13.11417234283094
ONEWEB-0090             
1 45427U 20020D   26018.59500019  .00000181  00000+0  47622-3 0  9995
2 45427  87.8823  50.8433 0001766  95.7138 264.4191 13.11418438283066
ONEWEB-0061             
1 45428U 20020E   26018.55062943  .00000173  00000+0  45213-3 0  9996
2 45428  87.8826  50.8352 0001778  94.2343 265.8989 13.11415806283016
ONEWEB-0081             
1 45429U 20020F   26018.53212753  .00000605  00000+0  16703-2 0  9992
2 45429  87.8828  50.8545 0001933  88.9497 271.1852 13.11416154283124
ONEWEB-0069             
1 45430U 20020G   26018.59738877  .00000278  00000+0  74737-3 0  9998
2 45430  87.8827  50.8372 0001829  92.8981 267.2357 13.11419682283067
ONEWEB-0031             
1 45431U 20020H   26018.64570638 -.00000485  00000+0 -14038-2 0  9993
2 45431  87.8817  50.8486 0001603  98.6934 261.4375 13.11417124283059
ONEWEB-0027             
1 45432U 20020J   26018.55975330  .00000071  00000+0  14986-3 0  9994
2 45432  87.9090  35.5778 0001722 105.4122 254.7200 13.17649165286655
ONEWEB-0064             
1 45433U 20020K   26018.64401122 -.00000456  00000+0 -13220-2 0  9996
2 45433  87.8818  50.8390 0001685  99.9830 260.1488 13.11416795283082
ONEWEB-0018             
1 45434U 20020L   26018.52365079  .00000423  00000+0  11566-2 0  9997
2 45434  87.8830  50.8561 0001725  90.3419 269.7907 13.11418234283014
ONEWEB-0083             
1 45435U 20020M   26018.59062591 -.00000065  00000+0 -21980-3 0  9994
2 45435  87.8828  50.8310 0001684  95.4965 264.6355 13.11418568283066
ONEWEB-0095             
1 45436U 20020N   26018.58141414 -.00000555  00000+0 -16029-2 0  9997
2 45436  87.8823  50.8429 0002420 110.3645 249.7743 13.11417552283061
